NORAD_CAT_ID,OBJECT_NAME,OBJECT_TYPE,EPOCH,MEAN_MOTION,ECCENTRICITY,INCLINATION,RA_OF_ASC_NODE,ARG_OF_PERICENTER,MEAN_ANOMALY,BSTAR,MEAN_MOTION_DOT,MEAN_MOTION_DDOT,TLE_LINE0,TLE_LINE1,TLE_LINE2,SEMIMAJOR_AXIS,PERIOD,APOGEE,PERIGEE,DECAYED
55664.0,STARLINK-5480,PAYLOAD,2024-02-28 20:43:58,14.98327721,0.0003037,69.9993,229.9039,266.0376,94.0435,9.7445e-05,1.07e-05,0.0,0 STARLINK-5480,1 55664U 23021AN  24059.86386638  .00001070  00000-0  97445-4 0  9993,2 55664  69.9993 229.9039 0003037 266.0376  94.0435 14.98327721 58462,6950.2,96.107,574.176,569.954,0.0
55664.0,STARLINK-5480,PAYLOAD,2024-02-29 14:21:26,14.98333029,0.0003167,69.9991,228.0518,267.5798,92.4999,3.5963e-05,3.36e-06,0.0,0 STARLINK-5480,1 55664U 23021AN  24060.59822403  .00000336  00000-0  35963-4 0  9991,2 55664  69.9991 228.0518 0003167 267.5798  92.4999 14.98333029 58577,6950.184,96.107,574.25,569.847,0.0
55664.0,STARLINK-5480,PAYLOAD,2024-02-29 19:09:50,14.98357038,0.0003336,69.9993,227.5471,269.0014,91.0763,-0.00034733,-4.238e-05,0.0,0 STARLINK-5480,1 55664U 23021AN  24060.79849806 -.00004238  00000-0 -34733-3 0  9999,2 55664  69.9993 227.5471 0003336 269.0014  91.0763 14.98357038 58308,6950.109,96.105,574.293,569.656,0.0
55664.0,STARLINK-5480,PAYLOAD,2024-02-29 20:45:58,14.98330944,0.0003057,69.9997,227.3786,268.4392,91.6417,0.00011546,1.285e-05,0.0,0 STARLINK-5480,1 55664U 23021AN  24060.86526298  .00001285  00000-0  11546-3 0  9998,2 55664  69.9997 227.3786 0003057 268.4392  91.6417 14.98330944 58614,6950.19,96.107,574.18,569.93,0.0
55664.0,STARLINK-5480,PAYLOAD,2024-03-01 14:23:27,14.98331194,0.0003109,69.9995,225.527,268.206,91.8742,8.0746e-06,3e-08,0.0,0 STARLINK-5480,1 55664U 23021AN  24061.59962438  .00000003  00000-0  80746-5 0  9996,2 55664  69.9995 225.5270 0003109 268.2060  91.8742 14.98331194 58721,6950.189,96.107,574.215,569.893,0.0
55664.0,STARLINK-5480,PAYLOAD,2024-03-01 20:47:59,14.98332739,0.0003201,69.9995,224.8543,269.7762,90.303,2.1754e-05,1.67e-06,0.0,0 STARLINK-5480,1 55664U 23021AN  24061.86666260  .00000167  00000-0  21754-4 0  9994,2 55664  69.9995 224.8543 0003201 269.7762  90.3030 14.98332739 58768,6950.184,96.107,574.274,569.825,0.0
55664.0,STARLINK-5480,PAYLOAD,2024-03-02 14:25:28,14.98333032,0.0003134,69.9997,223.0027,269.6716,90.4084,1.9574e-05,1.41e-06,0.0,0 STARLINK-5480,1 55664U 23021AN  24062.60102152  .00000141  00000-0  19574-4 0  9991,2 55664  69.9997 223.0027 0003134 269.6716  90.4084 14.98333032 58870,6950.184,96.107,574.227,569.87,0.0
55664.0,STARLINK-5480,PAYLOAD,2024-03-02 20:50:00,14.98336647,0.0003155,69.9997,222.3294,269.7939,90.2858,4.0682e-05,3.92e-06,0.0,0 STARLINK-5480,1 55664U 23021AN  24062.86805778  .00000392  00000-0  40682-4 0  9995,2 55664  69.9997 222.3294 0003155 269.7939  90.2858 14.98336647 58916,6950.172,96.107,574.23,569.845,0.0
55664.0,STARLINK-5480,PAYLOAD,2024-03-03 03:14:32,14.98332658,0.0003144,69.9999,221.656,270.0562,90.0237,-6.9698e-06,-1.76e-06,0.0,0 STARLINK-5480,1 55664U 23021AN  24063.13510082 -.00000176  00000-0 -69698-5 0  9998,2 55664  69.9999 221.6560 0003144 270.0562  90.0237 14.98332658 58659,6950.185,96.107,574.235,569.865,0.0
55664.0,STARLINK-5480,PAYLOAD,2024-03-03 11:15:13,14.9828812,0.0003055,70.0,220.8147,266.366,93.7149,0.00069557,8.207e-05,0.0,0 STARLINK-5480,1 55664U 23021AN  24063.46891111  .00008207  00000-0  69557-3 0  9992,2 55664  70.0000 220.8147 0003055 266.3660  93.7149 14.98288120 58707,6950.322,96.11,574.311,570.064,0.0
55664.0,STARLINK-5480,PAYLOAD,2024-03-03 14:27:29,14.98327472,0.0003067,69.9999,220.4779,270.5075,89.5733,-1.6695e-05,-2.92e-06,0.0,0 STARLINK-5480,1 55664U 23021AN  24063.60242461 -.00000292  00000-0 -16695-4 0  9990,2 55664  69.9999 220.4779 0003067 270.5075  89.5733 14.98327472 59020,6950.201,96.107,574.197,569.934,0.0
55664.0,STARLINK-5480,PAYLOAD,2024-03-03 19:15:53,14.98321919,0.0002089,70.0,219.9733,261.2632,98.829,0.000151,1.709e-05,0.0,0 STARLINK-5480,1 55664U 23021AN  24063.80270504  .00001709  00000-0  15100-3 0  9992,2 55664  70.0000 219.9733 0002089 261.2632  98.8290 14.98321919 58758,6950.218,96.108,573.535,570.631,0.0
55664.0,STARLINK-5480,PAYLOAD,2024-03-03 20:52:01,14.98323861,0.0002001,70.0003,219.804,253.5636,106.5303,0.00015619,1.771e-05,0.0,0 STARLINK-5480,1 55664U 23021AN  24063.86946413  .00001771  00000-0  15619-3 0  9991,2 55664  70.0003 219.8040 0002001 253.5636 106.5303 14.98323861 59068,6950.212,96.107,573.468,570.686,0.0
55664.0,STARLINK-5480,PAYLOAD,2024-03-04 11:17:13,14.98329402,0.0002971,70.0001,218.2878,268.8324,91.2495,0.00014311,1.615e-05,0.0,0 STARLINK-5480,1 55664U 23021AN  24064.47029669  .00001615  00000-0  14311-3 0  9999,2 55664  70.0001 218.2878 0002971 268.8324  91.2495 14.98329402 58852,6950.195,96.107,574.125,569.995,0.0
55664.0,STARLINK-5480,PAYLOAD,2024-03-04 14:29:29,14.98333795,0.0003021,69.9999,217.9516,270.6183,89.463,5.8772e-05,6.08e-06,0.0,0 STARLINK-5480,1 55664U 23021AN  24064.60381633  .00000608  00000-0  58772-4 0  9997,2 55664  69.9999 217.9516 0003021 270.6183  89.4630 14.98333795 59177,6950.181,96.107,574.146,569.947,0.0
55664.0,STARLINK-5480,PAYLOAD,2024-03-04 19:17:53,14.98336321,0.0002933,70.0004,217.4483,265.4518,94.6306,9.3672e-05,1.025e-05,0.0,0 STARLINK-5480,1 55664U 23021AN  24064.80409425  .00001025  00000-0  93672-4 0  9991,2 55664  70.0004 217.4483 0002933 265.4518  94.6306 14.98336321 59200,6950.173,96.107,574.077,570.0,0.0
55664.0,STARLINK-5480,PAYLOAD,2024-03-05 14:31:31,14.98318602,0.0002774,70.0006,215.4272,255.9192,104.1659,-4.7477e-05,-6.59e-06,0.0,0 STARLINK-5480,1 55664U 23021AN  24065.60522823 -.00000659  00000-0 -47477-4 0  9994,2 55664  70.0006 215.4272 0002774 255.9192 104.1659 14.98318602 59324,6950.228,96.108,574.021,570.165,0.0
55664.0,STARLINK-5480,PAYLOAD,2024-03-05 19:19:55,14.98321837,0.0002733,70.0005,214.9234,257.3178,102.7675,-1.0221e-05,-2.15e-06,0.0,0 STARLINK-5480,1 55664U 23021AN  24065.80550733 -.00000215  00000-0 -10221-4 0  9992,2 55664  70.0005 214.9234 0002733 257.3178 102.7675 14.98321837 59056,6950.218,96.108,573.983,570.184,0.0
55664.0,STARLINK-5480,PAYLOAD,2024-03-06 11:21:15,14.98332693,0.0003047,70.0004,213.2407,269.9727,90.1083,-2.4825e-05,-3.89e-06,0.0,0 STARLINK-5480,1 55664U 23021AN  24066.47310149 -.00000389  00000-0 -24825-4 0  9998,2 55664  70.0004 213.2407 0003047 269.9727  90.1083 14.98332693 59153,6950.185,96.107,574.167,569.932,0.0
55664.0,STARLINK-5480,PAYLOAD,2024-03-06 14:33:32,14.98331273,0.000296,70.0001,212.9037,265.4562,94.6258,-2.6858e-05,-4.13e-06,0.0,0 STARLINK-5480,1 55664U 23021AN  24066.60662215 -.00000413  00000-0 -26858-4 0  9993,2 55664  70.0001 212.9037 0002960 265.4562  94.6258 14.98331273 59477,6950.189,96.107,574.111,569.997,0.0
55664.0,STARLINK-5480,PAYLOAD,2024-03-07 14:35:33,14.9831849,0.0003011,70.0004,210.3785,269.4625,90.6189,8.2486e-05,8.91e-06,0.0,0 STARLINK-5480,1 55664U 23021AN  24067.60802875  .00000891  00000-0  82486-4 0  9999,2 55664  70.0004 210.3785 0003011 269.4625  90.6189 14.98318490 59626,6950.228,96.108,574.186,570.001,0.0
55664.0,STARLINK-5480,PAYLOAD,2024-03-08 11:25:17,14.98336936,0.0003058,70.0003,208.1908,271.9889,88.092,6.8267e-05,7.22e-06,0.0,0 STARLINK-5480,1 55664U 23021AN  24068.47589821  .00000722  00000-0  68267-4 0  9992,2 55664  70.0003 208.1908 0003058 271.9889  88.0920 14.98336936 59458,6950.171,96.107,574.162,569.911,0.0
55664.0,STARLINK-5480,PAYLOAD,2024-03-08 19:25:57,14.98343442,0.0002446,70.001,207.3467,268.3537,91.7342,0.00013258,1.49e-05,0.0,0 STARLINK-5480,1 55664U 23021AN  24068.80969058  .00001490  00000-0  13258-3 0  9995,2 55664  70.0010 207.3467 0002446 268.3537  91.7342 14.98343442 59502,6950.151,96.106,573.716,570.316,0.0
55664.0,STARLINK-5480,PAYLOAD,2024-03-09 01:50:26,14.98374016,0.0002635,70.0022,206.676,277.4885,82.5975,0.00046672,5.486e-05,0.0,0 STARLINK-5480,1 55664U 23021AN  24069.07669902  .00005486  00000-0  46672-3 0  9995,2 55664  70.0022 206.6760 0002635 277.4885  82.5975 14.98374016 59545,6950.057,96.104,573.753,570.09,0.0
55664.0,STARLINK-5480,PAYLOAD,2024-03-09 11:27:19,14.98311678,0.0004093,69.9999,205.6654,287.9334,72.1378,-0.00015213,-1.907e-05,0.0,0 STARLINK-5480,1 55664U 23021AN  24069.47730520 -.00001907  00000-0 -15213-3 0  9997,2 55664  69.9999 205.6654 0004093 287.9334  72.1378 14.98311678 59605,6950.25,96.108,574.959,569.27,0.0
55664.0,STARLINK-5480,PAYLOAD,2024-03-10 01:52:31,14.98322125,0.0003205,70.0001,204.1505,275.8598,84.2196,-0.00016133,-2.017e-05,0.0,0 STARLINK-5480,1 55664U 23021AN  24070.07813965 -.00002017  00000-0 -16133-3 0  9995,2 55664  70.0001 204.1505 0003205 275.8598  84.2196 14.98322125 59693,6950.217,96.108,574.31,569.855,0.0
55664.0,STARLINK-5480,PAYLOAD,2024-03-10 11:29:19,14.98324541,0.000293,70.0005,203.1419,269.3689,90.7134,-0.00026852,-3.295e-05,0.0,0 STARLINK-5480,1 55664U 23021AN  24070.47870270 -.00003295  00000-0 -26852-3 0  9999,2 55664  70.0005 203.1419 0002930 269.3689  90.7134 14.98324541 60053,6950.21,96.107,574.111,570.038,0.0
55664.0,STARLINK-5480,PAYLOAD,2024-03-10 19:30:00,14.98324701,0.0002802,70.0007,202.3001,269.3254,90.7584,-0.00023344,-2.877e-05,0.0,0 STARLINK-5480,1 55664U 23021AN  24070.81250260 -.00002877  00000-0 -23344-3 0  9996,2 55664  70.0007 202.3001 0002802 269.3254  90.7584 14.98324701 60102,6950.209,96.107,574.022,570.127,0.0
55664.0,STARLINK-5480,PAYLOAD,2024-03-11 11:31:20,14.9830344,0.0003987,70.0013,200.6192,259.2177,100.8533,0.00033288,3.879e-05,0.0,0 STARLINK-5480,1 55664U 23021AN  24071.48009829  .00003879  00000-0  33288-3 0  9992,2 55664  70.0013 200.6192 0003987 259.2177 100.8533 14.98303440 59908,6950.275,96.109,574.911,569.369,0.0
55664.0,STARLINK-5480,PAYLOAD,2024-03-11 14:43:36,14.98317561,0.0003043,70.0006,200.2808,269.4894,90.5917,0.00017027,1.939e-05,0.0,0 STARLINK-5480,1 55664U 23021AN  24071.61361488  .00001939  00000-0  17027-3 0  9997,2 55664  70.0006 200.2808 0003043 269.4894  90.5917 14.98317561 60229,6950.231,96.108,574.211,569.981,0.0
